OBJECT_NAME,OBJECT_ID,EPOCH,MEAN_MOTION,ECCENTRICITY,INCLINATION,RA_OF_ASC_NODE,ARG_OF_PERICENTER,MEAN_ANOMALY,EPHEMERIS_TYPE,CLASSIFICATION_TYPE,NORAD_CAT_ID,ELEMENT_SET_NO,REV_AT_EPOCH,BSTAR,MEAN_MOTION_DOT,MEAN_MOTION_DDOT
SL-14 R/B,1990-010B,2026-06-30T18:59:30.320160,14.83654896,.0018254,82.5022,161.1685,288.7447,71.1787,0,U,20466,999,94525,.42054E-4,.371E-5,0
SL-14 R/B,1990-018B,2026-06-30T07:27:05.256864,14.82224993,.00176894,82.5220,117.8423,82.1172,278.2049,0,U,20511,999,93926,.49451713E-4,.419E-5,0
HST,1990-037B,2026-06-30T18:26:38.607360,15.30905377,.0001486,28.4735,347.7442,311.6422,48.4047,0,U,20580,999,79065,.21731E-3,.6914E-4,0
SL-16 R/B,1990-046B,2026-06-30T02:19:17.200704,14.15025151,.00125842,70.9996,61.8367,140.9909,219.2124,0,U,20625,999,86429,-.10321104E-3,-.248E-5,0
COSMOS 2084,1990-055A,2026-06-30T17:43:18.056352,15.06172112,.0006484,62.7914,309.8362,301.3129,58.7336,0,U,20663,999,95334,.15698E-3,.2109E-4,0
SL-6 R/B(2),1990-055D,2026-06-30T16:17:48.135840,15.04042629,.0042849,62.7806,229.4640,6.9812,353.1874,0,U,20666,999,95518,.11293E-3,.1391E-4,0
SL-8 R/B,1990-078B,2026-06-30T16:03:31.384800,14.92994107,.0346951,82.9024,149.4577,352.9185,6.7196,0,U,20775,999,82613,.79949E-3,.28259E-3,0
SL-8 R/B,1991-006B,2026-06-30T17:05:55.369824,13.77507191,.0023869,82.9423,85.9723,78.8817,310.4137,0,U,21088,999,77963,.65386E-4,.81E-6,0
OKEAN-3,1991-039A,2026-06-30T16:46:12.806976,15.05383664,.0012513,82.5153,227.2795,308.0128,51.9968,0,U,21397,999,88203,.12634E-3,.1841E-4,0
COSMOS 2151,1991-042A,2026-06-30T19:08:22.564032,15.00477420,.0013229,82.4969,334.5450,42.5340,317.6906,0,U,21422,999,88015,.12031E-3,.1544E-4,0
SL-14 R/B,1991-042B,2026-06-30T19:01:06.251808,14.81910548,.00158,82.4935,114.1377,225.9061,134.0854,0,U,21423,999,86982,.39552E-4,.337E-5,0
ERS-1,1991-050A,2026-06-30T02:14:12.463584,14.39525449,.00310456,98.7794,202.1065,227.2929,132.5643,0,U,21574,999,83190,.12840706E-3,.356E-5,0
ARIANE 40 R/B,1991-050F,2026-06-30T13:41:57.922656,14.42964621,.0004471,98.1868,229.4660,92.7324,267.4379,0,U,21610,999,83527,.9618E-4,.28E-5,0
INTERCOSMOS 25,1991-086A,2026-06-30T13:34:24.821184,12.12217100,.1484011,82.6033,241.7143,233.5038,112.0221,0,U,21819,999,51036,.11637E-3,.589E-5,0
SL-8 R/B,1992-008B,2026-06-30T12:22:58.475712,13.75980378,.00347386,82.9260,183.8771,177.0314,294.9176,0,U,21876,999,72493,.11891265E-3,.131E-5,0
SL-8 R/B,1992-020B,2026-06-30T17:17:21.919776,13.75550005,.0028785,82.9299,69.8052,345.0813,33.2565,0,U,21938,999,71667,.40916E-4,.55E-6,0
USA 81,1992-023A,2026-06-30T14:49:01.493760,14.32401582,.0002535,85.0065,66.2559,73.0152,287.1318,0,U,21949,999,11095,.54329E-4,.167E-5,0
COSMOS 2219,1992-076A,2026-06-30T08:20:47.017824,14.14108103,.00173094,71.0604,142.5599,21.7391,338.4463,0,U,22219,999,73430,.12354225E-3,.189E-5,0
SL-16 R/B,1992-076B,2026-06-30T12:23:09.229056,14.16874884,.00150628,71.0014,310.7028,281.0823,149.1127,0,U,22220,999,73781,-.8488544E-4,-.218E-5,0
COSMOS 2221,1992-080A,2026-06-30T10:40:14.068128,14.96567275,.00145367,82.5032,171.0623,166.7623,193.3984,0,U,22236,999,79765,.13317241E-3,.1544E-4,0
SL-16 R/B,1992-093B,2026-06-30T19:27:49.929984,14.15463452,.000321,71.0213,126.7910,162.8140,197.3093,0,U,22285,999,72916,.16886E-3,.282E-5,0
COSMOS 2228,1992-094A,2026-06-30T20:26:12.619680,14.97634863,.0016034,82.5184,128.9545,282.5136,77.4293,0,U,22286,999,79299,.16892E-3,.2006E-4,0
SL-16 R/B,1993-016B,2026-06-30T10:32:16.937088,14.15314729,.00093441,71.0088,338.3730,164.1549,195.9868,0,U,22566,999,71812,-.10329568E-3,-.249E-5,0
COSMOS 2242,1993-024A,2026-06-30T09:59:17.491488,14.96943557,.0014447,82.5185,158.8858,288.0795,71.8853,0,U,22626,999,79725,.15481901E-3,.1807E-4,0
SL-16 R/B,1993-059B,2026-06-30T06:21:32.123232,14.17248456,.00158422,70.9897,133.7251,32.3964,327.8129,0,U,22803,999,69548,.13800312E-3,.231E-5,0
ARIANE 40 R/B,1993-061H,2026-06-30T14:41:49.854912,14.32913223,.0009708,98.4814,248.1903,314.2454,45.7933,0,U,22830,999,71027,.88794E-4,.2E-5,0
COSMOS 2278,1994-023A,2026-06-30T18:07:07.194432,14.14397186,.0010327,71.0549,298.5383,227.0541,132.9716,0,U,23087,999,66079,-.88191E-4,-.216E-5,0
SL-16 R/B,1994-023B,2026-06-30T11:13:45.937920,14.15026845,.00018743,70.9982,194.0407,173.8546,186.2600,0,U,23088,999,66204,-.7920096E-4,-.201E-5,0
SL-16 R/B,1994-074B,2026-06-30T13:21:39.253248,14.79513388,.00058974,97.6986,207.7204,201.4157,317.4582,0,U,23343,999,70393,.62801491E-4,.42E-5,0
SL-16 R/B,1994-077B,2026-06-30T19:54:27.632736,14.15578114,.000374,70.9832,114.4621,315.4164,44.6657,0,U,23405,999,63224,.23774E-5,-.43E-6,0
